ORBCOMM FM33            
1 25983U 99065D   25308.01226000  .00001359  00000+0  46906-3 0  9990
2 25983  45.0290  54.0218 0006681  49.8949 310.2486 14.40366924356224
ORBCOMM FM36            
1 25984U 99065E   25307.88000654  .00001250  00000+0  45147-3 0  9996
2 25984  45.0376 148.7075 0002327 291.6099  68.4502 14.38532858354539
ORBCOMM FM35            
1 25985U 99065F   25307.89210058  .00000986  00000+0  37385-3 0  9999
2 25985  45.0378 154.8112 0004164  22.8483 337.2551 14.37460369354889
ORBCOMM FM34            
1 25986U 99065G   25307.92717538  .00000922  00000+0  35274-3 0  9994
2 25986  45.0374 155.1036 0003822 335.1800  24.8865 14.37433710355000
ORBCOMM FM38            
1 33060U 08031A   25307.61161843  .00002210  00000+0  30252-3 0  9990
2 33060  48.4407  10.5154 0005596 281.4236  78.6051 14.81994620935422
ORBCOMM FM41            
1 33061U 08031B   25307.40366439  .00002013  00000+0  28071-3 0  9993
2 33061  48.4446  19.7752 0004805 266.3473 192.7703 14.81556209934875
ORBCOMM FM29            
1 33062U 08031C   25307.65809256  .00002344  00000+0  32141-3 0  9990
2 33062  48.4396  26.1905 0006496 266.1640 251.9615 14.81688011934826
ORBCOMM FM39            
1 33063U 08031D   25308.00126937  .00002207  00000+0  31515-3 0  9991
2 33063  48.4404  50.3929 0007334 239.8549 120.1639 14.80162809934508
